[{"OBJECT_NAME":"QIANFAN-1","OBJECT_ID":"2024-140A","EPOCH":"2026-03-04T18:07:46.876224","MEAN_MOTION":13.50999381,"ECCENTRICITY":0.0017179,"INCLINATION":88.9718,"RA_OF_ASC_NODE":290.798,"ARG_OF_PERICENTER":344.035,"MEAN_ANOMALY":16.0258,"EPHEMERIS_TYPE":0,"CLASSIFICATION_TYPE":"U","NORAD_CAT_ID":60379,"ELEMENT_SET_NO":999,"REV_AT_EPOCH":7842,"BSTAR":0.00014745,"MEAN_MOTION_DOT":1.07e-6,"MEAN_MOTION_DDOT":0},{"OBJECT_NAME":"QIANFAN-2","OBJECT_ID":"2024-140B","EPOCH":"2026-03-04T20:35:48.021216","MEAN_MOTION":13.51003551,"ECCENTRICITY":0.001166,"INCLINATION":88.9704,"RA_OF_ASC_NODE":290.6152,"ARG_OF_PERICENTER":316.8315,"MEAN_ANOMALY":43.1921,"EPHEMERIS_TYPE":0,"CLASSIFICATION_TYPE":"U","NORAD_CAT_ID":60380,"ELEMENT_SET_NO":999,"REV_AT_EPOCH":7849,"BSTAR":0.000153,"MEAN_MOTION_DOT":1.11e-6,"MEAN_MOTION_DDOT":0},{"OBJECT_NAME":"QIANFAN-3","OBJECT_ID":"2024-140C","EPOCH":"2026-03-04T19:00:53.849952","MEAN_MOTION":13.50999466,"ECCENTRICITY":0.0013156,"INCLINATION":88.9697,"RA_OF_ASC_NODE":290.7485,"ARG_OF_PERICENTER":329.8828,"MEAN_ANOMALY":30.1565,"EPHEMERIS_TYPE":0,"CLASSIFICATION_TYPE":"U","NORAD_CAT_ID":60381,"ELEMENT_SET_NO":999,"REV_AT_EPOCH":7839,"BSTAR":0.00015332,"MEAN_MOTION_DOT":1.11e-6,"MEAN_MOTION_DDOT":0},{"OBJECT_NAME":"QIANFAN-4","OBJECT_ID":"2024-140D","EPOCH":"2026-03-04T20:12:08.986752","MEAN_MOTION":13.5099985,"ECCENTRICITY":0.0011974,"INCLINATION":88.9722,"RA_OF_ASC_NODE":290.6617,"ARG_OF_PERICENTER":319.6276,"MEAN_ANOMALY":40.3986,"EPHEMERIS_TYPE":0,"CLASSIFICATION_TYPE":"U","NORAD_CAT_ID":60382,"ELEMENT_SET_NO":999,"REV_AT_EPOCH":7852,"BSTAR":0.00016907,"MEAN_MOTION_DOT":1.21e-6,"MEAN_MOTION_DDOT":0},{"OBJECT_NAME":"QIANFAN-5","OBJECT_ID":"2024-140E","EPOCH":"2026-03-04T19:36:38.232288","MEAN_MOTION":13.51001813,"ECCENTRICITY":0.0014752,"INCLINATION":88.9696,"RA_OF_ASC_NODE":290.7712,"ARG_OF_PERICENTER":340.8257,"MEAN_ANOMALY":19.2337,"EPHEMERIS_TYPE":0,"CLASSIFICATION_TYPE":"U","NORAD_CAT_ID":60383,"ELEMENT_SET_NO":999,"REV_AT_EPOCH":7838,"BSTAR":0.0001481,"MEAN_MOTION_DOT":1.08e-6,"MEAN_MOTION_DDOT":0},{"OBJECT_NAME":"QIANFAN-6","OBJECT_ID":"2024-140F","EPOCH":"2026-03-04T18:19:37.015104","MEAN_MOTION":13.51001587,"ECCENTRICITY":0.0012244,"INCLINATION":88.9723,"RA_OF_ASC_NODE":290.545,"ARG_OF_PERICENTER":326.1511,"MEAN_ANOMALY":33.8857,"EPHEMERIS_TYPE":0,"CLASSIFICATION_TYPE":"U","NORAD_CAT_ID":60384,"ELEMENT_SET_NO":999,"REV_AT_EPOCH":7857,"BSTAR":0.0001618,"MEAN_MOTION_DOT":1.16e-6,"MEAN_MOTION_DDOT":0},{"OBJECT_NAME":"QIANFAN-7","OBJECT_ID":"2024-140G","EPOCH":"2026-03-04T19:35:14.075232","MEAN_MOTION":14.27771856,"ECCENTRICITY":0.0016537,"INCLINATION":88.9735,"RA_OF_ASC_NODE":284.0836,"ARG_OF_PERICENTER":125.5318,"MEAN_ANOMALY":234.7422,"EPHEMERIS_TYPE":0,"CLASSIFICATION_TYPE":"U","NORAD_CAT_ID":60385,"ELEMENT_SET_NO":999,"REV_AT_EPOCH":8210,"BSTAR":0.00016436,"MEAN_MOTION_DOT":4.21e-6,"MEAN_MOTION_DDOT":0},{"OBJECT_NAME":"QIANFAN-8","OBJECT_ID":"2024-140H","EPOCH":"2026-03-04T20:18:06.218784","MEAN_MOTION":13.51003113,"ECCENTRICITY":0.0015742,"INCLINATION":88.9725,"RA_OF_ASC_NODE":290.7752,"ARG_OF_PERICENTER":326.6184,"MEAN_ANOMALY":33.3973,"EPHEMERIS_TYPE":0,"CLASSIFICATION_TYPE":"U","NORAD_CAT_ID":60386,"ELEMENT_SET_NO":999,"REV_AT_EPOCH":7843,"BSTAR":0.00015256,"MEAN_MOTION_DOT":1.1e-6,"MEAN_MOTION_DDOT":0},{"OBJECT_NAME":"QIANFAN-9","OBJECT_ID":"2024-140J","EPOCH":"2026-03-04T19:42:32.444640","MEAN_MOTION":13.50997886,"ECCENTRICITY":0.0015445,"INCLINATION":88.9723,"RA_OF_ASC_NODE":290.8516,"ARG_OF_PERICENTER":326.5309,"MEAN_ANOMALY":33.4864,"EPHEMERIS_TYPE":0,"CLASSIFICATION_TYPE":"U","NORAD_CAT_ID":60387,"ELEMENT_SET_NO":999,"REV_AT_EPOCH":7841,"BSTAR":0.00013936,"MEAN_MOTION_DOT":1.02e-6,"MEAN_MOTION_DDOT":0},{"OBJECT_NAME":"QIANFAN-10","OBJECT_ID":"2024-140K","EPOCH":"2026-03-04T19:48:17.705952","MEAN_MOTION":13.50996285,"ECCENTRICITY":0.0013314,"INCLINATION":88.9732,"RA_OF_ASC_NODE":290.2061,"ARG_OF_PERICENTER":302.7362,"MEAN_ANOMALY":57.2506,"EPHEMERIS_TYPE":0,"CLASSIFICATION_TYPE":"U","NORAD_CAT_ID":60388,"ELEMENT_SET_NO":999,"REV_AT_EPOCH":7854,"BSTAR":0.00013393,"MEAN_MOTION_DOT":9.8e-7,"MEAN_MOTION_DDOT":0},{"OBJECT_NAME":"QIANFAN-11","OBJECT_ID":"2024-140L","EPOCH":"2026-03-04T20:41:49.966368","MEAN_MOTION":13.51003181,"ECCENTRICITY":0.0013458,"INCLINATION":88.9658,"RA_OF_ASC_NODE":290.7283,"ARG_OF_PERICENTER":326.9969,"MEAN_ANOMALY":33.0341,"EPHEMERIS_TYPE":0,"CLASSIFICATION_TYPE":"U","NORAD_CAT_ID":60389,"ELEMENT_SET_NO":999,"REV_AT_EPOCH":7820,"BSTAR":0.00015934,"MEAN_MOTION_DOT":1.15e-6,"MEAN_MOTION_DDOT":0},{"OBJECT_NAME":"QIANFAN-12","OBJECT_ID":"2024-140M","EPOCH":"2026-03-04T19:24:48.639456","MEAN_MOTION":13.51000856,"ECCENTRICITY":0.0012541,"INCLINATION":88.9701,"RA_OF_ASC_NODE":290.8131,"ARG_OF_PERICENTER":336.3656,"MEAN_ANOMALY":23.6918,"EPHEMERIS_TYPE":0,"CLASSIFICATION_TYPE":"U","NORAD_CAT_ID":60390,"ELEMENT_SET_NO":999,"REV_AT_EPOCH":7832,"BSTAR":0.00017599,"MEAN_MOTION_DOT":1.26e-6,"MEAN_MOTION_DDOT":0},{"OBJECT_NAME":"QIANFAN-13","OBJECT_ID":"2024-140N","EPOCH":"2026-03-04T20:29:56.891616","MEAN_MOTION":13.5100131,"ECCENTRICITY":0.0012448,"INCLINATION":88.9714,"RA_OF_ASC_NODE":290.9184,"ARG_OF_PERICENTER":339.107,"MEAN_ANOMALY":20.957,"EPHEMERIS_TYPE":0,"CLASSIFICATION_TYPE":"U","NORAD_CAT_ID":60391,"ELEMENT_SET_NO":999,"REV_AT_EPOCH":7835,"BSTAR":0.00016252,"MEAN_MOTION_DOT":1.17e-6,"MEAN_MOTION_DDOT":0},{"OBJECT_NAME":"QIANFAN-14","OBJECT_ID":"2024-140P","EPOCH":"2026-03-04T19:18:44.937792","MEAN_MOTION":13.5100109,"ECCENTRICITY":0.0016111,"INCLINATION":88.9693,"RA_OF_ASC_NODE":290.8037,"ARG_OF_PERICENTER":337.3374,"MEAN_ANOMALY":22.7064,"EPHEMERIS_TYPE":0,"CLASSIFICATION_TYPE":"U","NORAD_CAT_ID":60392,"ELEMENT_SET_NO":999,"REV_AT_EPOCH":7835,"BSTAR":0.00016834,"MEAN_MOTION_DOT":1.21e-6,"MEAN_MOTION_DDOT":0},{"OBJECT_NAME":"QIANFAN-15","OBJECT_ID":"2024-140Q","EPOCH":"2026-03-04T19:30:48.371904","MEAN_MOTION":13.50998981,"ECCENTRICITY":0.001151,"INCLINATION":88.9716,"RA_OF_ASC_NODE":290.7788,"ARG_OF_PERICENTER":325.0437,"MEAN_ANOMALY":34.9958,"EPHEMERIS_TYPE":0,"CLASSIFICATION_TYPE":"U","NORAD_CAT_ID":60393,"ELEMENT_SET_NO":999,"REV_AT_EPOCH":7834,"BSTAR":0.00015444,"MEAN_MOTION_DOT":1.12e-6,"MEAN_MOTION_DDOT":0},{"OBJECT_NAME":"QIANFAN-16","OBJECT_ID":"2024-140R","EPOCH":"2026-03-04T19:12:48.006432","MEAN_MOTION":13.50997575,"ECCENTRICITY":0.0014176,"INCLINATION":88.9719,"RA_OF_ASC_NODE":290.9026,"ARG_OF_PERICENTER":342.3063,"MEAN_ANOMALY":17.7592,"EPHEMERIS_TYPE":0,"CLASSIFICATION_TYPE":"U","NORAD_CAT_ID":60394,"ELEMENT_SET_NO":999,"REV_AT_EPOCH":7825,"BSTAR":0.0001698,"MEAN_MOTION_DOT":1.22e-6,"MEAN_MOTION_DDOT":0},{"OBJECT_NAME":"QIANFAN-17","OBJECT_ID":"2024-140S","EPOCH":"2026-03-04T20:53:41.213760","MEAN_MOTION":13.51004267,"ECCENTRICITY":0.0014362,"INCLINATION":88.973,"RA_OF_ASC_NODE":290.9503,"ARG_OF_PERICENTER":335.379,"MEAN_ANOMALY":24.6674,"EPHEMERIS_TYPE":0,"CLASSIFICATION_TYPE":"U","NORAD_CAT_ID":60395,"ELEMENT_SET_NO":999,"REV_AT_EPOCH":7922,"BSTAR":0.00013706,"MEAN_MOTION_DOT":1.0e-6,"MEAN_MOTION_DDOT":0}]
