QIANFAN-1               
1 60379U 24140A   26063.75540366  .00000107  00000+0  14745-3 0  9990
2 60379  88.9718 290.7980 0017179 344.0350  16.0258 13.50999381 78428
QIANFAN-2               
1 60380U 24140B   26063.85819469  .00000111  00000+0  15300-3 0  9999
2 60380  88.9704 290.6152 0011660 316.8315  43.1921 13.51003551 78493
QIANFAN-3               
1 60381U 24140C   26063.79228993  .00000111  00000+0  15332-3 0  9994
2 60381  88.9697 290.7485 0013156 329.8828  30.1565 13.50999466 78397
QIANFAN-4               
1 60382U 24140D   26063.84177068  .00000121  00000+0  16907-3 0  9997
2 60382  88.9722 290.6617 0011974 319.6276  40.3986 13.50999850 78525
QIANFAN-5               
1 60383U 24140E   26063.81710917  .00000108  00000+0  14810-3 0  9997
2 60383  88.9696 290.7712 0014752 340.8257  19.2337 13.51001813 78388
QIANFAN-6               
1 60384U 24140F   26063.76362286  .00000116  00000+0  16180-3 0  9995
2 60384  88.9723 290.5450 0012244 326.1511  33.8857 13.51001587 78579
QIANFAN-7               
1 60385U 24140G   26063.81613513  .00000421  00000+0  16436-3 0  9997
2 60385  88.9735 284.0836 0016537 125.5318 234.7422 14.27771856 82105
QIANFAN-8               
1 60386U 24140H   26063.84590531  .00000110  00000+0  15256-3 0  9999
2 60386  88.9725 290.7752 0015742 326.6184  33.3973 13.51003113 78433
QIANFAN-9               
1 60387U 24140J   26063.82120885  .00000102  00000+0  13936-3 0  9993
2 60387  88.9723 290.8516 0015445 326.5309  33.4864 13.50997886 78415
QIANFAN-10              
1 60388U 24140K   26063.82520493  .00000098  00000+0  13393-3 0  9994
2 60388  88.9732 290.2061 0013314 302.7362  57.2506 13.50996285 78546
QIANFAN-11              
1 60389U 24140L   26063.86238387  .00000115  00000+0  15934-3 0  9990
2 60389  88.9658 290.7283 0013458 326.9969  33.0341 13.51003181 78202
QIANFAN-12              
1 60390U 24140M   26063.80889629  .00000126  00000+0  17599-3 0  9998
2 60390  88.9701 290.8131 0012541 336.3656  23.6918 13.51000856 78320
QIANFAN-13              
1 60391U 24140N   26063.85413069  .00000117  00000+0  16252-3 0  9990
2 60391  88.9714 290.9184 0012448 339.1070  20.9570 13.51001310 78354
QIANFAN-14              
1 60392U 24140P   26063.80468678  .00000121  00000+0  16834-3 0  9993
2 60392  88.9693 290.8037 0016111 337.3374  22.7064 13.51001090 78358
QIANFAN-15              
1 60393U 24140Q   26063.81305986  .00000112  00000+0  15444-3 0  9993
2 60393  88.9716 290.7788 0011510 325.0437  34.9958 13.50998981 78348
QIANFAN-16              
1 60394U 24140R   26063.80055563  .00000122  00000+0  16980-3 0  9993
2 60394  88.9719 290.9026 0014176 342.3063  17.7592 13.50997575 78258
QIANFAN-17              
1 60395U 24140S   26063.87061590  .00000100  00000+0  13706-3 0  9997
2 60395  88.9730 290.9503 0014362 335.3790  24.6674 13.51004267 79222
